STARS-AO
1 43679U 18084J   25284.44420031  .00007582  00000-0  43414-3 0  9990
2 43679  98.0702 118.4073 0001412 320.5154  39.5972 15.12941736379800
KAIDUN-1
1 41915U 17002C   25283.79472828  .00314713  38027-4  10950-2 0  9997
2 41915  97.1340 315.4988 0002318 186.5638 173.5605 15.89366292485325
CAS-4B (ZHUHAI-1 02)
1 42759U 17034B   25284.93788437  .01894252  34207-2  13788-2 0  9990
2 42759  42.9918 286.5051 0012312 104.6084 255.6166 16.15485804462220
CAS-4A (ZHUHAI-1 01)
1 42761U 17034D   25281.34159269  .04203186  90411-5  12507-2 0  9993
2 42761  42.9927 303.5081 0008135  81.2710 278.9099 16.26032227461692
EAGLESAT-1
1 43018U 17073F   25284.70326028  .00300817  00000-0  21182-2 0  9998
2 43018  97.5139 184.7867 0045367   6.0254 354.1545 15.71846245429785
LUOJIA-1 01
1 43485U 18048B   25284.95147853  .00003204  00000-0  37389-3 0  9990
2 43485  97.8338   2.0558 0008639 209.7438 150.3287 14.85848777397333
DIWATA-2B (PO-101)
1 43678U 18084H   25284.98165552  .00003704  00000-0  31108-3 0  9991
2 43678  98.1068 105.9580 0007348 219.9692 140.0990 14.98968493379014
ESHAIL-2
1 43700U 18090A   25284.85145940  .00000137  00000-0  00000-0 0  9990
2 43700   0.0176 121.8258 0002146 121.9856 109.2094  1.00272913 25188
K2SAT
1 43761U 18099D   25284.57238105  .00003111  00000-0  22322-3 0  9990
2 43761  97.4551 329.2518 0013649 112.1810 248.0866 15.04971080374699
AISTECHSAT-2
1 43768U 18099L   25284.89235482  .00008476  00000-0  49833-3 0  9992
2 43768  97.4682 333.3938 0006555  82.2253 277.9722 15.11898353374713
SNUSAT-2
1 43782U 18099AA  25284.87173169  .00010877  00000-0  55734-3 0  9994
2 43782  97.4454 337.3774 0013145  85.1101 275.1633 15.16678949375326
ITASAT-1
1 43786U 18099AE  25284.89225555  .00010126  00000-0  54839-3 0  9999
2 43786  97.4421 336.5212 0015083 132.8017 227.4487 15.14712663375261
IRVINE02
1 43789U 18099AH  25284.17937431  .00064626  00000-0  11956-2 0  9992
2 43789  97.4498 354.8842 0006715  61.0278 299.1645 15.48796408376050
EAGLET-1
1 43790U 18099AJ  25284.57369282  .00006496  00000-0  40032-3 0  9990
2 43790  97.4613 335.7155 0013088 120.8529 239.3990 15.10224095374773
ESEO
1 43792U 18099AL  25284.84561854  .00002314  00000-0  17532-3 0  9995
2 43792  97.4347 327.5373 0014878  99.1749 261.1161 15.03131038374487
HIBER-2
1 43774U 18099S   25284.45060302  .00074341  00000-0  12967-2 0  9999
2 43774  97.4734 356.8846 0003495  51.8004 308.3562 15.50450726376288
MINXSS-2
1 43758U 18099A   25284.91767156  .00027391  00000-0  92878-3 0  9996
2 43758  97.4878 351.6123 0011679  80.8735 279.3826 15.30445608375950
FOX-1CLIFF (AO-95)
1 43770U 18099N   25284.61651176  .00015273  00000-0  71388-3 0  9990
2 43770  97.4778 341.4244 0011254 135.6305 224.5834 15.19823138375377
CORVUS-BC4
1 43767U 18099K   25284.55740111  .00006980  00000-0  43744-3 0  9997
2 43767  97.4442 329.7436 0009996 132.4435 227.7642 15.09609542374856
CZ-4B R/B
1 43656U 18081B   25284.40801038  .00000283  00000-0  10238-3 0  9997
2 43656  99.3767 177.4047 0204104 263.2526  94.5392 14.31718662363704
COSMOS 2504 [i]
1 40555U 15020D   25284.90345211  .00000893  00000-0  32956-3 0  9991
2 40555  82.5161  63.1657 0608120 229.0336 125.6671 13.61136747516418
MERIDIAN-4
1 37398U 11018A   25283.60609858  .00001149  00000-0  20494-2 0  9999
2 37398  62.1134 114.9078 7424159 262.3167  16.2126  2.00611697105756
MERIDIAN-6
1 38995U 12063A   25284.82292804 -.00000588  00000-0  00000-0 0  9994
2 38995  64.6002  30.0962 7282622 230.3222  39.2673  2.00637965 94525
MERIDIAN-7
1 40296U 14069A   25284.42501953  .00000031  00000-0  00000-0 0  9995
2 40296  63.4716 240.5040 6762969 271.9960  18.1158  2.00618371 80240
METOP-C
1 43689U 18087A   25284.88002668  .00000105  00000-0  68204-4 0  9993
2 43689  98.7019 343.5688 0001777 134.8507 225.2815 14.21477950359555
FENGYUN-3B
1 37214U 10059A   25284.94151417  .00000109  00000-0  79924-4 0  9990
2 37214  99.0008 324.4559 0022382 167.6455 291.5624 14.14764660772327
FENGYUN-3C
1 39260U 13052A   25284.97277528  .00000165  00000-0  10486-3 0  9993
2 39260  98.4690 265.6874 0015176  22.3138 337.8694 14.15666885623444
EWS-G1 (GOES-13)
1 29155U 06018A   25284.90483708 -.00000130  00000-0  00000-0 0  9992
2 29155   3.8837  79.4281 0059068 267.4062 295.6499  0.98786032 40796
FENGYUN-2H
1 43491U 18050A   25284.97197549 -.00000131  00000-0  00000-0 0  9993
2 43491   2.3881  81.9961 0003278 144.0222 223.6029  1.00266755 26952
FENGYUN-2G
1 40367U 14090A   25284.93742390 -.00000307  00000-0  00000-0 0  9993
2 40367   5.0085  75.8179 0004063 180.3807 201.6363  1.00267615 39514
INMARSAT 4-F1
1 28628U 05009A   25284.79226407  .00000027  00000-0  00000-0 0  9997
2 28628   4.8408  42.4762 0003755 184.6574 256.8349  1.00272169 75188
INMARSAT 4-F2
1 28899U 05044A   25284.73207356 -.00000266  00000-0  00000-0 0  9998
2 28899   4.7713  43.6315 0003176 184.9504 199.0481  1.00268726 73037
INMARSAT 4-F3
1 33278U 08039A   25284.89825962 -.00000147  00000-0  00000-0 0  9996
2 33278   4.0844  30.4740 0002865 180.2261  35.4439  1.00272060 44053
INMARSAT 4A-F4 (ALPHASAT)
1 39215U 13038A   25284.85128606  .00000128  00000-0  00000-0 0  9993
2 39215   2.9577   3.4029 0004221 209.8682 138.7543  1.00275068 41526
ASTROCAST
1 43798U 18099AS  25284.15640276  .00022857  00000-0  71235-3 0  9995
2 43798  97.4700 352.5840 0007389  45.7114 314.4733 15.33236317376078
JY1SAT (JO-97)
1 43803U 18099AX  25284.43367307  .00015510  00000-0  63953-3 0  9990
2 43803  97.4513 342.5481 0008245  76.9005 283.3152 15.24127713375611
SUOMI-100
1 43804U 18099AY  25284.59986424  .00015585  00000-0  70117-3 0  9997
2 43804  97.4578 341.6145 0013003  78.5235 281.7460 15.21114168375533
GEO-KOMPSAT-2A
1 43823U 18100A   25284.84310054 -.00000351  00000-0  00000-0 0  9996
2 43823   0.0407 358.9386 0002063 249.5580 203.9624  1.00276591 25148
UWE-4
1 43880U 18111E   25284.27006760  .00022483  00000-0  76437-3 0  9993
2 43880  97.5815 199.2773 0013063 125.6687 234.5771 15.30386566372516
D-STAR ONE SPARROW
1 43881U 18111F   25284.50392055  .00045080  00000-0  12127-2 0  9998
2 43881  97.6041 205.4294 0008191 133.1009 227.0922 15.37710201372783
METEOR M2-2
1 44387U 19038A   25284.91608953  .00000197  00000-0  10514-3 0  9990
2 44387  98.8898 263.9081 0001908  46.7905 313.3432 14.24252055325959
MOMENTUS-X1
1 44408U 19038Y   25284.50246774  .00029380  00000-0  54644-3 0  9995
2 44408  97.7138 305.2702 0010609 193.0094 167.0883 15.48786128347858
MERIDIAN-8
1 44453U 19046A   25282.99599079  .00000129  00000-0  00000-0 0  9998
2 44453  62.9293  82.3152 6979570 274.1248  15.7360  2.00618931 45321
TAURUS-1
1 44530U 19059C   25284.96713720  .00009949  00000-0  17545-2 0  9991
2 44530  98.6210  70.5021 0008770  10.2266 349.9114 14.67687616322176
GAOFEN 12-01
1 44819U 19082A   25284.97384317  .00000665  00000-0  93404-4 0  9990
2 44819  97.8154 292.8683 0004129  91.9764 268.1921 14.80548669317362
DUCHIFAT-3
1 44854U 19089C   25284.33485296  .00137107  00000-0  13842-2 0  9992
2 44854  36.9360 280.8509 0008165 206.5496 153.4849 15.63947378322260
CAS-6 (TO-108)
1 44881U 19093C   25284.95315638  .00001382  00000-0  16444-3 0  9994
2 44881  97.7819 357.9538 0013740 177.4036 182.7254 14.85887832314541
ELEKTRO-L3
1 44903U 19095A   25284.97197549 -.00000105  00000-0  00000-0 0  9993
2 44903   0.0444   8.4576 0002063 244.9595 193.3536  1.00271590 21225
DOSAAF-85 (RS-44)
1 44909U 19096E   25284.86118871  .00000011  00000-0 -26062-6 0  9997
2 44909  82.5206 144.7316 0217711   5.2648 355.0669 12.79744450270580
MERIDIAN-9
1 45254U 20015A   25284.22389884 -.00000022  00000-0  00000-0 0  9998
2 45254  65.3946 345.9390 6926616 281.9489  13.6742  2.00613567 41294
ION-MK01
1 46274U 20061C   25284.91587231  .00053459  00000-0  67439-3 0  9997
2 46274  97.2280 353.9855 0002756 121.8714 238.2812 15.59425010284298
UPMSAT-2
1 46276U 20061E   25284.11510829  .12115553  24945-5  13983-3 0  9991
2 46276  97.2106   5.1352 0012001 257.8540 102.1421 16.49625583285008
DEKART
1 46493U 20068H   25284.92884024  .00015552  00000-0  53695-3 0  9999
2 46493  97.8705 272.8471 0013162  84.9067 275.3674 15.29973543277718
NORBY
1 46494U 20068J   25284.94157076  .00025522  00000-0  73622-3 0  9992
2 46494  97.8667 276.3993 0011733  76.2591 283.9957 15.35623689277946
SALSAT (TUBSAT 22)
1 46495U 20068K   25284.67860953  .00011759  00000-0  47612-3 0  9995
2 46495  97.8750 268.6904 0013185  91.3278 268.9469 15.24775036277425
NETSAT-4
1 46504U 20068U   25284.71776509  .00021234  00000-0  64678-3 0  9994
2 46504  97.8574 269.9225 0009187 115.7442 244.4748 15.33972054277553
NETSAT-3
1 46505U 20068V   25284.89685793  .00020468  00000-0  65327-3 0  9998
2 46505  97.8588 268.7622 0008589 124.9536 235.2512 15.32495404277520
NETSAT-1
1 46506U 20068W   25284.51594416  .00016056  00000-0  61085-3 0  9994
2 46506  97.8623 265.2134 0007687 140.8921 219.2874 15.26827845277258
NETSAT-2
1 46507U 20068X   25284.46628701  .00019124  00000-0  58262-3 0  9996
2 46507  97.8584 269.0974 0006962 134.6485 225.5325 15.34007616277458
ARKTIKA-M1
1 47719U 21016A   25273.30456647 -.00000067  00000-0  00000-0 0  9996
2 47719  63.1648  93.9278 7163272 268.8764  16.0765  2.00626972 33572
SIMBA
1 47941U 21022K   25284.97469067  .00070210  00000-0  10260-2 0  9992
2 47941  97.4062 192.9290 0006483 186.4050 173.7123 15.55380692252458
UNISAT-7
1 47945U 21022P   25284.46542642  .00014739  00000-0  47522-3 0  9997
2 47945  97.4047 182.9272 0008495 239.2084 120.8322 15.32234215251663
CSS (TIANHE-1)
1 48274U 21035A   25284.73972266  .00033074  00000-0  37726-3 0  9994
2 48274  41.4664  33.5177 0003088 228.8868 131.1705 15.61521643254349
FENGYUN-4B
1 48808U 21047A   25284.78186994 -.00000336  00000-0  00000-0 0  9998
2 48808   0.1862 279.4809 0010398  73.0079  54.1658  1.00269136 16096
TUBIN
1 48900U 21059X   25284.96133865  .00120464  00000-0  76010-3 0  9994
2 48900  97.6746 105.5448 0002038 136.4831 223.6594 15.76283340239518
